NORAD_CAT_ID,OBJECT_NAME,OBJECT_TYPE,EPOCH,MEAN_MOTION,ECCENTRICITY,INCLINATION,RA_OF_ASC_NODE,ARG_OF_PERICENTER,MEAN_ANOMALY,BSTAR,MEAN_MOTION_DOT,MEAN_MOTION_DDOT,TLE_LINE0,TLE_LINE1,TLE_LINE2,SEMIMAJOR_AXIS,PERIOD,APOGEE,PERIGEE,DECAYED
52544.0,STARLINK-3944,PAYLOAD,2022-08-01 22:00:00,15.08841184,0.0001809,53.2158,280.8657,42.8736,306.4251,-0.0017390999999999,-0.00027861,0.0,0 STARLINK-3944,1 52544U 22051M   22213.91667824 -.00027861  00000-0 -17391-2 0  9992,2 52544  53.2158 280.8657 0001809  42.8736 306.4251 15.08841184  1305,6917.877,95.437,540.993,538.49,0.0
52544.0,STARLINK-3944,PAYLOAD,2022-08-02 14:00:01,15.08814758,0.0001998,53.216,277.8742,40.7544,331.7212,0.0023704999999999,0.00037614,0.0,0 STARLINK-3944,1 52544U 22051M   22214.58334491  .00037614  00000-0  23705-2 0  9998,2 52544  53.2160 277.8742 0001998  40.7544 331.7212 15.08814758  1307,6917.958000000001,95.439,541.205,538.44,0.0
52544.0,STARLINK-3944,PAYLOAD,2022-08-03 06:00:00,15.08855464,0.0001876999999999,53.2163,274.8797,45.4169,350.2284,-0.00093457,-0.00015138,0.0,0 STARLINK-3944,1 52544U 22051M   22215.25001157 -.00015138  00000-0 -93457-3 0  9994,2 52544  53.2163 274.8797 0001877  45.4169 350.2284 15.08855464 13002,6917.833000000001,95.437,540.997,538.4,0.0
52544.0,STARLINK-3944,PAYLOAD,2022-08-03 14:00:01,15.08823607,0.0002053,53.2163,273.3848,40.4417,6.8154,0.0026428,0.00042005,0.0,0 STARLINK-3944,1 52544U 22051M   22215.58334491  .00042005  00000-0  26428-2 0  9994,2 52544  53.2163 273.3848 0002053  40.4417   6.8154 15.08823607  1305,6917.93,95.439,541.216,538.375,0.0
52544.0,STARLINK-3944,PAYLOAD,2022-08-03 22:00:01,15.08854417,0.0001859,53.2165,271.8866,42.1322,16.7854,-0.0029054,-0.0004625,0.0,0 STARLINK-3944,1 52544U 22051M   22215.91668981 -.00046250  00000-0 -29054-2 0  9991,2 52544  53.2165 271.8866 0001859  42.1322  16.7854 15.08854417  1307,6917.8359999999975,95.437,540.987,538.415,0.0
52544.0,STARLINK-3944,PAYLOAD,2022-08-04 14:00:01,15.08804388,0.0002012,53.2166,268.8954,37.9821,44.0509,0.0028164,0.00044777,0.0,0 STARLINK-3944,1 52544U 22051M   22216.58334491  .00044777  00000-0  28164-2 0  9992,2 52544  53.2166 268.8954 0002012  37.9821  44.0509 15.08804388  1303,6917.989000000001,95.44,541.246,538.462,0.0
52544.0,STARLINK-3944,PAYLOAD,2022-08-04 22:00:00,15.08821225,0.0001821,53.2167,267.3973,41.4951,52.1142,0.00057372,8.85e-05,0.0,0 STARLINK-3944,1 52544U 22051M   22216.91667824  .00008850  00000-0  57372-3 0  9994,2 52544  53.2167 267.3973 0001821  41.4951  52.1142 15.08821225  1302,6917.938,95.439,541.063,538.543,0.0
52544.0,STARLINK-3944,PAYLOAD,2022-08-05 06:00:02,15.08848907,0.0001859,53.2168,265.9012,43.1698,62.0748,-0.0016459,-0.00026394,0.0,0 STARLINK-3944,1 52544U 22051M   22217.25002315 -.00026394  00000-0 -16459-2 0  9995,2 52544  53.2168 265.9012 0001859  43.1698  62.0748 15.08848907 13300,6917.853,95.437,541.004,538.432,0.0
52544.0,STARLINK-3944,PAYLOAD,2022-08-05 14:00:01,15.08812162,0.0002014,53.2165,264.4061,38.2285,78.6169,0.0028279,0.00044972,0.0,0 STARLINK-3944,1 52544U 22051M   22217.58335648  .00044972  00000-0  28279-2 0  9992,2 52544  53.2165 264.4061 0002014  38.2285  78.6169 15.08812162  1307,6917.965,95.439,541.224,538.437,0.0
52544.0,STARLINK-3944,PAYLOAD,2022-08-05 22:00:00,15.0882593,0.0001815,53.2166,262.9082,42.3639,86.0072,0.0011296,0.00017728,0.0,0 STARLINK-3944,1 52544U 22051M   22217.91667824  .00017728  00000-0  11296-2 0  9993,2 52544  53.2166 262.9082 0001815  42.3639  86.0072 15.08825930  1304,6917.9230000000025,95.438,541.044,538.533,0.0
52544.0,STARLINK-3944,PAYLOAD,2022-08-06 00:00:02,15.08817009,0.0001806,53.2164,262.5337,43.5075,177.8263,0.0025781999999999,0.00040957,0.0,0 STARLINK-3944,1 52544U 22051M   22218.00002315  .00040957  00000-0  25782-2 0  9997,2 52544  53.2164 262.5337 0001806  43.5075 177.8263 15.08817009 13423,6917.951,95.439,541.065,538.566,0.0
52544.0,STARLINK-3944,PAYLOAD,2022-08-06 14:00:01,15.08820002,0.0002028,53.2162,259.9172,39.1497,112.4088,0.0026625,0.00042318,0.0,0 STARLINK-3944,1 52544U 22051M   22218.58334491  .00042318  00000-0  26625-2 0  9993,2 52544  53.2162 259.9172 0002028  39.1497 112.4088 15.08820002 13500,6917.941999999999,95.439,541.2090000000002,538.404,0.0
52544.0,STARLINK-3944,PAYLOAD,2022-08-06 19:41:26,15.08834538,0.0001963,53.2171,258.8516,43.385,316.7297,0.00010131,1.324e-05,0.0,0 STARLINK-3944,1 52544U 22051M   22218.82044104  .00001324  00000-0  10131-3 0  9997,2 52544  53.2171 258.8516 0001963  43.3850 316.7297 15.08834538 13473,6917.897,95.438,541.12,538.404,0.0
52544.0,STARLINK-3944,PAYLOAD,2022-08-07 06:00:00,15.08860281,0.0001914,53.2161,256.9235,44.9254,129.8155,-0.001888,-0.00030227,0.0,0 STARLINK-3944,1 52544U 22051M   22219.25001157 -.00030227  00000-0 -18880-2 0  9990,2 52544  53.2161 256.9235 0001914  44.9254 129.8155 15.08860281 13616,6917.818,95.436,541.007,538.359,0.0
52544.0,STARLINK-3944,PAYLOAD,2022-08-07 14:00:01,15.08827672,0.0002065999999999,53.2156,255.4282,40.2335,146.1175,0.0023333,0.0003703,0.0,0 STARLINK-3944,1 52544U 22051M   22219.58334491  .00037030  00000-0  23333-2 0  9992,2 52544  53.2156 255.4282 0002066  40.2335 146.1175 15.08827672  1308,6917.918000000002,95.438,541.212,538.354,0.0
52544.0,STARLINK-3944,PAYLOAD,2022-08-07 19:32:12,15.0884463,0.0001991,53.2171,254.3911,44.8852,315.2301,0.00012526,1.706e-05,0.0,0 STARLINK-3944,1 52544U 22051M   22219.81403644  .00001706  00000-0  12526-3 0  9999,2 52544  53.2171 254.3911 0001991  44.8852 315.2301 15.08844630 13623,6917.866,95.437,541.109,538.354,0.0
52544.0,STARLINK-3944,PAYLOAD,2022-08-08 14:00:01,15.08828343,0.0002075,53.2151,250.939,38.9105,182.3321,0.0010770999999999,0.0001689,0.0,0 STARLINK-3944,1 52544U 22051M   22220.58335648  .00016890  00000-0  10771-2 0  9992,2 52544  53.2151 250.9390 0002075  38.9105 182.3321 15.08828343 13812,6917.916,95.438,541.216,538.346,0.0
52544.0,STARLINK-3944,PAYLOAD,2022-08-08 22:00:00,15.08816743,0.0001898,53.2151,249.4409,42.6043,190.174,0.0025613,0.00040685,0.0,0 STARLINK-3944,1 52544U 22051M   22220.91667824  .00040685  00000-0  25613-2 0  9993,2 52544  53.2151 249.4409 0001898  42.6043 190.1740 15.08816743  1305,6917.951,95.439,541.13,538.503,0.0
52544.0,STARLINK-3944,PAYLOAD,2022-08-09 14:00:01,15.08816655,0.0002094,53.2149,246.4499,36.9641,218.9948,0.00042801,6.526e-05,0.0,0 STARLINK-3944,1 52544U 22051M   22221.58334491  .00006526  00000-0  42801-3 0  9993,2 52544  53.2149 246.4499 0002094  36.9641 218.9948 15.08816655  1308,6917.9519999999975,95.439,541.265,538.368,0.0
52544.0,STARLINK-3944,PAYLOAD,2022-08-09 22:00:00,15.08796506,0.0001924,53.215,244.9517,40.8309,226.7073,0.002725,0.00043296,0.0,0 STARLINK-3944,1 52544U 22051M   22221.91667824  .00043296  00000-0  27250-2 0  9994,2 52544  53.2150 244.9517 0001924  40.8309 226.7073 15.08796506  1308,6918.013000000001,95.44,541.2090000000002,538.547,0.0
52544.0,STARLINK-3944,PAYLOAD,2022-08-10 14:00:01,15.08824177,0.0002173,53.2148,241.9607,37.4189,253.2587,0.00067987,0.00010544,0.0,0 STARLINK-3944,1 52544U 22051M   22222.58334491  .00010544  00000-0  67987-3 0  9991,2 52544  53.2148 241.9607 0002173  37.4189 253.2587 15.08824177  1308,6917.929,95.439,541.297,538.29,0.0
52544.0,STARLINK-3944,PAYLOAD,2022-08-10 17:07:18,15.08845477,0.0002105,53.215,241.3759,38.9572,238.609,-0.002294,-0.00036619,0.0,0 STARLINK-3944,1 52544U 22051M   22222.71341435 -.00036619  00000-0 -22940-2 0  9994,2 52544  53.2150 241.3759 0002105  38.9572 238.6090 15.08845477 14137,6917.864000000001,95.437,541.185,538.2719999999998,0.0
52544.0,STARLINK-3944,PAYLOAD,2022-08-10 22:00:00,15.08805705,0.0002014,53.2151,240.4625,42.3183,259.9487,0.0029004,0.00046131,0.0,0 STARLINK-3944,1 52544U 22051M   22222.91667824  .00046131  00000-0  29004-2 0  9995,2 52544  53.2151 240.4625 0002014  42.3183 259.9487 15.08805705  1307,6917.985,95.44,541.243,538.457,0.0
52544.0,STARLINK-3944,PAYLOAD,2022-08-11 06:00:02,15.08845339,0.0002165999999999,53.2151,238.9672,41.4838,272.4196,-0.0015030999999999,-0.00024135,0.0,0 STARLINK-3944,1 52544U 22051M   22223.25002315 -.00024135  00000-0 -15031-2 0  9998,2 52544  53.2151 238.9672 0002166  41.4838 272.4196 15.08845339 14214,6917.864000000001,95.437,541.227,538.231,0.0
52544.0,STARLINK-3944,PAYLOAD,2022-08-11 14:00:01,15.08837749,0.0002248,53.2149,237.4712,38.6246,286.8026,-6.3546e-05,-1.299e-05,0.0,0 STARLINK-3944,1 52544U 22051M   22223.58334491 -.00001299  00000-0 -63546-4 0  9999,2 52544  53.2149 237.4712 0002248  38.6246 286.8026 15.08837749  1305,6917.887,95.438,541.307,538.197,0.0
52544.0,STARLINK-3944,PAYLOAD,2022-08-11 22:00:00,15.08813602,0.0002068,53.2152,235.9731,44.0291,293.0008,0.0029866999999999,0.00047532,0.0,0 STARLINK-3944,1 52544U 22051M   22223.91667824  .00047532  00000-0  29867-2 0  9999,2 52544  53.2152 235.9731 0002068  44.0291 293.0008 15.08813602 14311,6917.9609999999975,95.439,541.257,538.395,0.0
52544.0,STARLINK-3944,PAYLOAD,2022-08-12 14:00:01,15.08853008,0.0002275,53.215,232.9815,40.0749,320.1408,-0.00050117,-8.259e-05,0.0,0 STARLINK-3944,1 52544U 22051M   22224.58334491 -.00008259  00000-0 -50117-3 0  9992,2 52544  53.2150 232.9815 0002275  40.0749 320.1408 15.08853008  1319,6917.840999999999,95.437,541.279,538.132,0.0
52544.0,STARLINK-3944,PAYLOAD,2022-08-12 22:00:01,15.08829533,0.0002054,53.2153,231.4835,45.1376,326.7548,0.0022375,0.00035492,0.0,0 STARLINK-3944,1 52544U 22051M   22224.91668981  .00035492  00000-0  22375-2 0  9994,2 52544  53.2153 231.4835 0002054  45.1376 326.7548 15.08829533  1307,6917.9119999999975,95.438,541.198,538.356,0.0
52544.0,STARLINK-3944,PAYLOAD,2022-08-13 14:00:01,15.08833963,0.0002207,53.2151,228.492,39.4814,355.5309,-0.0010161,-0.00016421,0.0,0 STARLINK-3944,1 52544U 22051M   22225.58334491 -.00016421  00000-0 -10161-2 0  9997,2 52544  53.2151 228.4920 0002207  39.4814 355.5309 15.08833963  1306,6917.899,95.438,541.2909999999998,538.237,0.0
